NORAD_CAT_ID,OBJECT_NAME,OBJECT_TYPE,EPOCH,MEAN_MOTION,ECCENTRICITY,INCLINATION,RA_OF_ASC_NODE,ARG_OF_PERICENTER,MEAN_ANOMALY,BSTAR,MEAN_MOTION_DOT,MEAN_MOTION_DDOT,TLE_LINE0,TLE_LINE1,TLE_LINE2,SEMIMAJOR_AXIS,PERIOD,APOGEE,PERIGEE,DECAYED
53789.0,STARLINK-4666,PAYLOAD,2022-09-30 16:00:00,15.73407998,0.0001111,53.2162,170.0556,77.741,291.7433,-0.00028342,-0.0004056,0.0,0 STARLINK-4666,1 53789U 22111S   22273.66667824 -.00040560  00000-0 -28342-3 0  9999,2 53789  53.2162 170.0556 0001111  77.7410 291.7433 15.73407998  3013,6727.302,91.521,349.915,348.42,0.0
53789.0,STARLINK-4666,PAYLOAD,2022-09-30 22:00:00,15.7344649,0.0001051,53.2161,168.8195,70.4383,275.9442,-0.0010295999999999,-0.00144177,0.0,0 STARLINK-4666,1 53789U 22111S   22273.91667824 -.00144177  00000-0 -10296-2 0  9994,2 53789  53.2161 168.8195 0001051  70.4383 275.9442 15.73446490  1302,6727.193,91.519,349.765,348.35,0.0
53789.0,STARLINK-4666,PAYLOAD,2022-10-01 14:00:01,15.73265103,0.0001113,53.2158,165.5184,76.6103,87.9998,-0.00036643,-0.00051872,0.0,0 STARLINK-4666,1 53789U 22111S   22274.58334491 -.00051872  00000-0 -36643-3 0  9993,2 53789  53.2158 165.5184 0001113  76.6103  87.9998 15.73265103  3160,6727.71,91.529,350.3230000000001,348.826,0.0
53789.0,STARLINK-4666,PAYLOAD,2022-10-01 22:00:00,15.73238439,0.0001161999999999,53.2157,163.8706,73.5714,180.0092,-0.00093168,-0.00129591,0.0,0 STARLINK-4666,1 53789U 22111S   22274.91667824 -.00129591  00000-0 -93168-3 0  9998,2 53789  53.2157 163.8706 0001162  73.5714 180.0092 15.73238439  1304,6727.786,91.531,350.432,348.869,0.0
53789.0,STARLINK-4666,PAYLOAD,2022-10-02 06:00:00,15.73135277,8.909999999999997e-05,53.2154,162.2215,61.3523,281.1505,0.00024346,0.0003359,0.0,0 STARLINK-4666,1 53789U 22111S   22275.25001157  .00033590  00000-0  24346-3 0  9990,2 53789  53.2154 162.2215 0000891  61.3523 281.1505 15.73135277  3265,6728.08,91.537,350.5440000000001,349.345,0.0
53789.0,STARLINK-4666,PAYLOAD,2022-10-02 14:00:01,15.73136848,7.709999999999999e-05,53.2157,160.5701,79.4386,351.9342,0.00082829,0.00116938,0.0,0 STARLINK-4666,1 53789U 22111S   22275.58334491  .00116938  00000-0  82829-3 0  9994,2 53789  53.2157 160.5701 0000771  79.4386 351.9342 15.73136848  1306,6728.075,91.537,350.459,349.421,0.0
53789.0,STARLINK-4666,PAYLOAD,2022-10-02 22:00:00,15.7324581,9.67e-05,53.2159,158.9223,69.3862,90.8812,-0.00041554,-0.00058645,0.0,0 STARLINK-4666,1 53789U 22111S   22275.91667824 -.00058645  00000-0 -41554-3 0  9992,2 53789  53.2159 158.9223 0000967  69.3862  90.8812 15.73245810  3372,6727.765,91.531,350.28,348.97900000000016,0.0
53789.0,STARLINK-4666,PAYLOAD,2022-10-03 06:00:00,15.73246619,0.0001054,53.2159,157.2729,68.7173,180.4985,-7.215100000000001e-05,-0.00010753,0.0,0 STARLINK-4666,1 53789U 22111S   22276.25001157 -.00010753  00000-0 -72151-4 0  9997,2 53789  53.2159 157.2729 0001054  68.7173 180.4985 15.73246619  3422,6727.762,91.53,350.336,348.918,0.0
53789.0,STARLINK-4666,PAYLOAD,2022-10-03 14:00:01,15.73194487,0.0001100999999999,53.2159,155.6216,82.959,255.2573,0.00094127,0.00133569,0.0,0 STARLINK-4666,1 53789U 22111S   22276.58334491  .00133569  00000-0  94127-3 0  9998,2 53789  53.2159 155.6216 0001101  82.9590 255.2573 15.73194487  1303,6727.911,91.534,350.517,349.035,0.0
53789.0,STARLINK-4666,PAYLOAD,2022-10-03 22:00:00,15.7328859,0.0001133,53.2158,153.9741,73.0735,354.0911,-0.00064599,-0.0009065,0.0,0 STARLINK-4666,1 53789U 22111S   22276.91667824 -.00090650  00000-0 -64599-3 0  9999,2 53789  53.2158 153.9741 0001133  73.0735 354.0911 15.73288590  1306,6727.643,91.528,350.27,348.745,0.0
53789.0,STARLINK-4666,PAYLOAD,2022-10-04 14:00:01,15.73192866,0.0001041,53.2158,150.673,87.3412,157.7925,3.4556e-05,4.231e-05,0.0,0 STARLINK-4666,1 53789U 22111S   22277.58334491  .00004231  00000-0  34556-4 0  9993,2 53789  53.2158 150.6730 0001041  87.3412 157.7925 15.73192866  1309,6727.916,91.534,350.481,349.08,0.0
53789.0,STARLINK-4666,PAYLOAD,2022-10-04 16:00:00,15.73184228,0.0001042,53.2161,150.2609,88.85600000000002,268.5099,0.0002204,0.00030403,0.0,0 STARLINK-4666,1 53789U 22111S   22277.66667824  .00030403  00000-0  22040-3 0  9995,2 53789  53.2161 150.2609 0001042  88.8560 268.5099 15.73184228  3640,6727.94,91.534,350.506,349.10400000000016,0.0
53789.0,STARLINK-4666,PAYLOAD,2022-10-04 22:00:00,15.73201102,9.21e-05,53.216,149.0256,73.1257,260.9032,-0.00037362,-0.00052727,0.0,0 STARLINK-4666,1 53789U 22111S   22277.91667824 -.00052727  00000-0 -37362-3 0  9991,2 53789  53.2160 149.0256 0000921  73.1257 260.9032 15.73201102  3686,6727.892,91.533,350.37699999999984,349.13699999999994,0.0
53789.0,STARLINK-4666,PAYLOAD,2022-10-05 14:00:01,15.73176585,0.000102,53.216,145.7251,85.2202,66.6732,2.5989e-05,3.026e-05,0.0,0 STARLINK-4666,1 53789U 22111S   22278.58335648  .00003026  00000-0  25989-4 0  9990,2 53789  53.2160 145.7251 0001020  85.2202  66.6732 15.73176585  1300,6727.962,91.535,350.51300000000015,349.141,0.0
53789.0,STARLINK-4666,PAYLOAD,2022-10-05 22:00:00,15.73160434,0.0001219,53.2159,144.0781,72.9627,167.7697,0.00053722,0.00075325,0.0,0 STARLINK-4666,1 53789U 22111S   22278.91667824  .00075325  00000-0  53722-3 0  9997,2 53789  53.2159 144.0781 0001219  72.9627 167.7697 15.73160434  1301,6728.0080000000025,91.535,350.6930000000001,349.05300000000005,0.0
53789.0,STARLINK-4666,PAYLOAD,2022-10-06 06:00:00,15.7325941,0.0001203,53.2153,142.4279,76.0957,253.5125,-0.00033724,-0.00047801,0.0,0 STARLINK-4666,1 53789U 22111S   22279.25001157 -.00047801  00000-0 -33724-3 0  9996,2 53789  53.2153 142.4279 0001203  76.0957 253.5125 15.73259410  3892,6727.726,91.53,350.4,348.781,0.0
53789.0,STARLINK-4666,PAYLOAD,2022-10-06 14:00:01,15.73222194,0.0001412,53.2155,140.7769,87.7911,330.7822,-6.065100000000001e-05,-9.131e-05,0.0,0 STARLINK-4666,1 53789U 22111S   22279.58334491 -.00009131  00000-0 -60651-4 0  9996,2 53789  53.2155 140.7769 0001412  87.7911 330.7822 15.73222194  1305,6727.831999999999,91.532,350.647,348.747,0.0
53789.0,STARLINK-4666,PAYLOAD,2022-10-06 22:42:55,15.73206654,0.0001449,53.2156,138.9821,78.5145,237.846,-2.0276e-05,-3.465e-05,0.0,0 STARLINK-4666,1 53789U 22111S   22279.94646991 -.00003465  00000-0 -20276-4 0  9990,2 53789  53.2156 138.9821 0001449  78.5145 237.8460 15.73206654  1309,6727.876,91.533,350.716,348.766,0.0
53789.0,STARLINK-4666,PAYLOAD,2022-10-07 06:00:00,15.73253489,0.0001149,53.2154,137.4792,77.602,158.8569,-0.00034893,-0.00049414,0.0,0 STARLINK-4666,1 53789U 22111S   22280.25001157 -.00049414  00000-0 -34893-3 0  9998,2 53789  53.2154 137.4792 0001149  77.6020 158.8569 15.73253489  4052,6727.743,91.53,350.381,348.835,0.0
53789.0,STARLINK-4666,PAYLOAD,2022-10-07 14:00:01,15.73212141,0.0001114,53.2157,135.8285,87.6086,237.8265,2.131e-06,-3.2e-06,0.0,0 STARLINK-4666,1 53789U 22111S   22280.58334491 -.00000320  00000-0  21310-5 0  9998,2 53789  53.2157 135.8285 0001114  87.6086 237.8265 15.73212141  1305,6727.861,91.532,350.475,348.976,0.0
53789.0,STARLINK-4666,PAYLOAD,2022-10-07 22:00:00,15.73220274,0.0001105,53.2149,134.181,72.5348,341.8576,-0.00020084,-0.00028734,0.0,0 STARLINK-4666,1 53789U 22111S   22280.91667824 -.00028734  00000-0 -20084-3 0  9999,2 53789  53.2149 134.1810 0001105  72.5348 341.8576 15.73220274  4159,6727.837,91.532,350.446,348.959,0.0
53789.0,STARLINK-4666,PAYLOAD,2022-10-08 14:00:01,15.7317459,0.0001197,53.2146,130.8796,86.9088,145.3683,-2.2894e-05,-3.827e-05,0.0,0 STARLINK-4666,1 53789U 22111S   22281.58334491 -.00003827  00000-0 -22894-4 0  9992,2 53789  53.2146 130.8796 0001197  86.9088 145.3683 15.73174590  1302,6727.968000000003,91.535,350.63800000000015,349.027,0.0
53789.0,STARLINK-4666,PAYLOAD,2022-10-08 22:00:00,15.73312013,0.0001327,53.2161,129.2339,84.9814,236.2059,-0.0027677,-0.0037406999999999,0.0,0 STARLINK-4666,1 53789U 22111S   22281.91667824 -.00374070  00000-0 -27677-2 0  9991,2 53789  53.2161 129.2339 0001327  84.9814 236.2059 15.73312013  4319,6727.576,91.527,350.334,348.548,0.0
53789.0,STARLINK-4666,PAYLOAD,2022-10-09 06:00:00,15.73195762,0.0001177999999999,53.2144,127.5814,74.8193,335.3163,-0.00014777,-0.00021302,0.0,0 STARLINK-4666,1 53789U 22111S   22282.25001157 -.00021302  00000-0 -14777-3 0  9995,2 53789  53.2144 127.5814 0001178  74.8193 335.3163 15.73195762  4363,6727.906999999997,91.533,350.565,348.98,0.0
53789.0,STARLINK-4666,PAYLOAD,2022-10-09 14:00:01,15.73227506,0.0001318,53.2144,125.9309,82.6424,56.4067,-5.4907e-05,-8.327e-05,0.0,0 STARLINK-4666,1 53789U 22111S   22282.58334491 -.00008327  00000-0 -54907-4 0  9993,2 53789  53.2144 125.9309 0001318  82.6424  56.4067 15.73227506  1301,6727.816999999999,91.532,350.5680000000001,348.795,0.0
53789.0,STARLINK-4666,PAYLOAD,2022-10-09 22:00:00,15.73227649,0.0001315999999999,53.214,124.2834,70.4964,157.5092,-0.00042356,-0.00059714,0.0,0 STARLINK-4666,1 53789U 22111S   22282.91667824 -.00059714  00000-0 -42356-3 0  9999,2 53789  53.2140 124.2834 0001316  70.4964 157.5092 15.73227649  1303,6727.816,91.532,350.56699999999995,348.796,0.0
53789.0,STARLINK-4666,PAYLOAD,2022-10-10 08:00:01,15.73153328,9.37e-05,53.2148,122.2203,75.8974,353.2827,-2.9406e-05,-4.735e-05,0.0,0 STARLINK-4666,1 53789U 22111S   22283.33334491 -.00004735  00000-0 -29406-4 0  9992,2 53789  53.2148 122.2203 0000937  75.8974 353.2827 15.73153328  4549,6728.028,91.536,350.524,349.26300000000015,0.0
53789.0,STARLINK-4666,PAYLOAD,2022-10-10 14:00:01,15.73182361,0.0001158,53.2142,120.9821,81.9091,323.9726,0.00044487,0.00062231,0.0,0 STARLINK-4666,1 53789U 22111S   22283.58334491  .00062231  00000-0  44487-3 0  9997,2 53789  53.2142 120.9821 0001158  81.9091 323.9726 15.73182361  4572,6727.945,91.534,350.59,349.031,0.0
53789.0,STARLINK-4666,PAYLOAD,2022-10-10 22:00:01,15.73264405,0.0001296999999999,53.2158,119.3367,73.5944,61.2867,-0.0022651999999999,-0.00308014,0.0,0 STARLINK-4666,1 53789U 22111S   22283.91668981 -.00308014  00000-0 -22652-2 0  9991,2 53789  53.2158 119.3367 0001297  73.5944  61.2867 15.73264405  4639,6727.712,91.529,350.449,348.704,0.0
